STARLINK-1646           
1 46351U 20062AC  26053.69166865  .00118078  00000+0  19144-2 0  9997
2 46351  53.0487  47.6048 0005677  59.1411 301.0156 15.51891413302574
STARLINK-1653           
1 46352U 20062AD  26053.82775531  .00108701  00000+0  15628-2 0  9994
2 46352  53.0475  34.5225 0004771 220.1662 139.8997 15.55252674302761
STARLINK-1656           
1 46353U 20062AE  26053.77506043  .00044681  00000+0  80830-3 0  9993
2 46353  53.0510  71.1599 0001459  71.2254 288.8912 15.49254360302236
STARLINK-1657           
1 46354U 20062AF  26053.83336806  .00181229  00000+0  10928-2 0  9999
2 46354  53.0473  43.6533 0002368 250.3913 237.5423 15.76620917  5816
STARLINK-1661           
1 46355U 20062AG  26053.77289369  .00000291  00000+0  21960-4 0  9993
2 46355  53.1591  80.2678 0001546  77.7496 282.3678 15.30194967302114
STARLINK-1665           
1 46356U 20062AH  26053.27875397  .00165512  00000+0  20302-2 0  9996
2 46356  53.0464  52.0741 0003194 287.1202  72.9459 15.59282346302462
STARLINK-1666           
1 46357U 20062AJ  26053.78218094  .00118053  00000+0  17611-2 0  9995
2 46357  53.0498  46.5444 0006069  57.9689 302.1910 15.54195040302586
STARLINK-1707           
1 46359U 20062AL  26053.83336806  .00140337  00000+0  16324-2 0  9995
2 46359  53.0272 347.1501 0007219  82.8107  91.9496 15.60749169  5960
STARLINK-1726           
1 46362U 20062AP  26053.83336806  .00242892  00000+0  10216-2 0  9992
2 46362  53.0415 335.7761 0010018 106.4622 276.3593 15.84245323  6002
STARLINK-1651           
1 46366U 20062AT  26053.47857873  .00875228  38846-3  14480-2 0  9993
2 46366  53.0346 344.2749 0006605 135.8939 224.2619 16.02500341303426
STARLINK-1724           
1 46375U 20062BC  26053.22457595  .00099652  00000+0  17644-2 0  9994
2 46375  53.0321   1.6039 0002100  16.5643 343.5433 15.49508120303161
STARLINK-1742           
1 46376U 20062BD  26053.83336806  .00131270  00000+0  80473-3 0  9997
2 46376  53.0311 330.2574 0013348  94.8704 288.2479 15.76294872  6003
STARLINK-1770           
1 46383U 20062BL  26053.12915004  .00108618  00000+0  12592-2 0  9996
2 46383  53.0437  31.8244 0001143 241.1561 118.9337 15.60992309302730
STARLINK-1771           
1 46384U 20062BM  26053.71601322  .00070882  00000+0  15127-2 0  9995
2 46384  53.0428  57.3190 0002276 232.2513 127.8287 15.44255462302423
STARLINK-1648           
1 46533U 20070B   26053.83336806  .00291021  00000+0  13754-2 0  9999
2 46533  53.0470 201.0933 0006847 222.1406 300.3283 15.81674102  6013
STARLINK-1663           
1 46535U 20070D   26053.81766999  .00143163  00000+0  16287-2 0  9996
2 46535  53.0456 208.1564 0005542 137.3995 222.7448 15.61328037297752
