[{"OBJECT_NAME":"STARLINK-1646","OBJECT_ID":"2020-062AC","EPOCH":"2026-02-22T16:36:00.171360","MEAN_MOTION":15.51891413,"ECCENTRICITY":0.0005677,"INCLINATION":53.0487,"RA_OF_ASC_NODE":47.6048,"ARG_OF_PERICENTER":59.1411,"MEAN_ANOMALY":301.0156,"EPHEMERIS_TYPE":0,"CLASSIFICATION_TYPE":"U","NORAD_CAT_ID":46351,"ELEMENT_SET_NO":999,"REV_AT_EPOCH":30257,"BSTAR":0.0019144,"MEAN_MOTION_DOT":0.00118078,"MEAN_MOTION_DDOT":0},{"OBJECT_NAME":"STARLINK-1653","OBJECT_ID":"2020-062AD","EPOCH":"2026-02-22T19:51:58.058784","MEAN_MOTION":15.55252674,"ECCENTRICITY":0.0004771,"INCLINATION":53.0475,"RA_OF_ASC_NODE":34.5225,"ARG_OF_PERICENTER":220.1662,"MEAN_ANOMALY":139.8997,"EPHEMERIS_TYPE":0,"CLASSIFICATION_TYPE":"U","NORAD_CAT_ID":46352,"ELEMENT_SET_NO":999,"REV_AT_EPOCH":30276,"BSTAR":0.0015628,"MEAN_MOTION_DOT":0.00108701,"MEAN_MOTION_DDOT":0},{"OBJECT_NAME":"STARLINK-1656","OBJECT_ID":"2020-062AE","EPOCH":"2026-02-22T18:36:05.221152","MEAN_MOTION":15.4925436,"ECCENTRICITY":0.0001459,"INCLINATION":53.051,"RA_OF_ASC_NODE":71.1599,"ARG_OF_PERICENTER":71.2254,"MEAN_ANOMALY":288.8912,"EPHEMERIS_TYPE":0,"CLASSIFICATION_TYPE":"U","NORAD_CAT_ID":46353,"ELEMENT_SET_NO":999,"REV_AT_EPOCH":30223,"BSTAR":0.0008083,"MEAN_MOTION_DOT":0.00044681,"MEAN_MOTION_DDOT":0},{"OBJECT_NAME":"STARLINK-1657","OBJECT_ID":"2020-062AF","EPOCH":"2026-02-22T20:00:03.000384","MEAN_MOTION":15.76620917,"ECCENTRICITY":0.0002368,"INCLINATION":53.0473,"RA_OF_ASC_NODE":43.6533,"ARG_OF_PERICENTER":250.3913,"MEAN_ANOMALY":237.5423,"EPHEMERIS_TYPE":0,"CLASSIFICATION_TYPE":"U","NORAD_CAT_ID":46354,"ELEMENT_SET_NO":999,"REV_AT_EPOCH":581,"BSTAR":0.0010928,"MEAN_MOTION_DOT":0.00181229,"MEAN_MOTION_DDOT":0},{"OBJECT_NAME":"STARLINK-1661","OBJECT_ID":"2020-062AG","EPOCH":"2026-02-22T18:32:58.014816","MEAN_MOTION":15.30194967,"ECCENTRICITY":0.0001546,"INCLINATION":53.1591,"RA_OF_ASC_NODE":80.2678,"ARG_OF_PERICENTER":77.7496,"MEAN_ANOMALY":282.3678,"EPHEMERIS_TYPE":0,"CLASSIFICATION_TYPE":"U","NORAD_CAT_ID":46355,"ELEMENT_SET_NO":999,"REV_AT_EPOCH":30211,"BSTAR":2.196e-5,"MEAN_MOTION_DOT":2.91e-6,"MEAN_MOTION_DDOT":0},{"OBJECT_NAME":"STARLINK-1665","OBJECT_ID":"2020-062AH","EPOCH":"2026-02-22T06:41:24.343008","MEAN_MOTION":15.59282346,"ECCENTRICITY":0.0003194,"INCLINATION":53.0464,"RA_OF_ASC_NODE":52.0741,"ARG_OF_PERICENTER":287.1202,"MEAN_ANOMALY":72.9459,"EPHEMERIS_TYPE":0,"CLASSIFICATION_TYPE":"U","NORAD_CAT_ID":46356,"ELEMENT_SET_NO":999,"REV_AT_EPOCH":30246,"BSTAR":0.0020302,"MEAN_MOTION_DOT":0.00165512,"MEAN_MOTION_DDOT":0},{"OBJECT_NAME":"STARLINK-1666","OBJECT_ID":"2020-062AJ","EPOCH":"2026-02-22T18:46:20.433216","MEAN_MOTION":15.5419504,"ECCENTRICITY":0.0006069,"INCLINATION":53.0498,"RA_OF_ASC_NODE":46.5444,"ARG_OF_PERICENTER":57.9689,"MEAN_ANOMALY":302.191,"EPHEMERIS_TYPE":0,"CLASSIFICATION_TYPE":"U","NORAD_CAT_ID":46357,"ELEMENT_SET_NO":999,"REV_AT_EPOCH":30258,"BSTAR":0.0017611,"MEAN_MOTION_DOT":0.00118053,"MEAN_MOTION_DDOT":0},{"OBJECT_NAME":"STARLINK-1707","OBJECT_ID":"2020-062AL","EPOCH":"2026-02-22T20:00:03.000384","MEAN_MOTION":15.60749169,"ECCENTRICITY":0.0007219,"INCLINATION":53.0272,"RA_OF_ASC_NODE":347.1501,"ARG_OF_PERICENTER":82.8107,"MEAN_ANOMALY":91.9496,"EPHEMERIS_TYPE":0,"CLASSIFICATION_TYPE":"U","NORAD_CAT_ID":46359,"ELEMENT_SET_NO":999,"REV_AT_EPOCH":596,"BSTAR":0.0016324,"MEAN_MOTION_DOT":0.00140337,"MEAN_MOTION_DDOT":0},{"OBJECT_NAME":"STARLINK-1726","OBJECT_ID":"2020-062AP","EPOCH":"2026-02-22T20:00:03.000384","MEAN_MOTION":15.84245323,"ECCENTRICITY":0.0010018,"INCLINATION":53.0415,"RA_OF_ASC_NODE":335.7761,"ARG_OF_PERICENTER":106.4622,"MEAN_ANOMALY":276.3593,"EPHEMERIS_TYPE":0,"CLASSIFICATION_TYPE":"U","NORAD_CAT_ID":46362,"ELEMENT_SET_NO":999,"REV_AT_EPOCH":600,"BSTAR":0.0010216,"MEAN_MOTION_DOT":0.00242892,"MEAN_MOTION_DDOT":0},{"OBJECT_NAME":"STARLINK-1651","OBJECT_ID":"2020-062AT","EPOCH":"2026-02-22T11:29:09.202272","MEAN_MOTION":16.02500341,"ECCENTRICITY":0.0006605,"INCLINATION":53.0346,"RA_OF_ASC_NODE":344.2749,"ARG_OF_PERICENTER":135.8939,"MEAN_ANOMALY":224.2619,"EPHEMERIS_TYPE":0,"CLASSIFICATION_TYPE":"U","NORAD_CAT_ID":46366,"ELEMENT_SET_NO":999,"REV_AT_EPOCH":30342,"BSTAR":0.001448,"MEAN_MOTION_DOT":0.00875228,"MEAN_MOTION_DDOT":0.00038846},{"OBJECT_NAME":"STARLINK-1724","OBJECT_ID":"2020-062BC","EPOCH":"2026-02-22T05:23:23.362080","MEAN_MOTION":15.4950812,"ECCENTRICITY":0.00021,"INCLINATION":53.0321,"RA_OF_ASC_NODE":1.6039,"ARG_OF_PERICENTER":16.5643,"MEAN_ANOMALY":343.5433,"EPHEMERIS_TYPE":0,"CLASSIFICATION_TYPE":"U","NORAD_CAT_ID":46375,"ELEMENT_SET_NO":999,"REV_AT_EPOCH":30316,"BSTAR":0.0017644,"MEAN_MOTION_DOT":0.00099652,"MEAN_MOTION_DDOT":0},{"OBJECT_NAME":"STARLINK-1742","OBJECT_ID":"2020-062BD","EPOCH":"2026-02-22T20:00:03.000384","MEAN_MOTION":15.76294872,"ECCENTRICITY":0.0013348,"INCLINATION":53.0311,"RA_OF_ASC_NODE":330.2574,"ARG_OF_PERICENTER":94.8704,"MEAN_ANOMALY":288.2479,"EPHEMERIS_TYPE":0,"CLASSIFICATION_TYPE":"U","NORAD_CAT_ID":46376,"ELEMENT_SET_NO":999,"REV_AT_EPOCH":600,"BSTAR":0.00080473,"MEAN_MOTION_DOT":0.0013127,"MEAN_MOTION_DDOT":0},{"OBJECT_NAME":"STARLINK-1770","OBJECT_ID":"2020-062BL","EPOCH":"2026-02-22T03:05:58.563456","MEAN_MOTION":15.60992309,"ECCENTRICITY":0.0001143,"INCLINATION":53.0437,"RA_OF_ASC_NODE":31.8244,"ARG_OF_PERICENTER":241.1561,"MEAN_ANOMALY":118.9337,"EPHEMERIS_TYPE":0,"CLASSIFICATION_TYPE":"U","NORAD_CAT_ID":46383,"ELEMENT_SET_NO":999,"REV_AT_EPOCH":30273,"BSTAR":0.0012592,"MEAN_MOTION_DOT":0.00108618,"MEAN_MOTION_DDOT":0},{"OBJECT_NAME":"STARLINK-1771","OBJECT_ID":"2020-062BM","EPOCH":"2026-02-22T17:11:03.542208","MEAN_MOTION":15.44255462,"ECCENTRICITY":0.0002276,"INCLINATION":53.0428,"RA_OF_ASC_NODE":57.319,"ARG_OF_PERICENTER":232.2513,"MEAN_ANOMALY":127.8287,"EPHEMERIS_TYPE":0,"CLASSIFICATION_TYPE":"U","NORAD_CAT_ID":46384,"ELEMENT_SET_NO":999,"REV_AT_EPOCH":30242,"BSTAR":0.0015127,"MEAN_MOTION_DOT":0.00070882,"MEAN_MOTION_DDOT":0},{"OBJECT_NAME":"STARLINK-1648","OBJECT_ID":"2020-070B","EPOCH":"2026-02-22T20:00:03.000384","MEAN_MOTION":15.81674102,"ECCENTRICITY":0.0006847,"INCLINATION":53.047,"RA_OF_ASC_NODE":201.0933,"ARG_OF_PERICENTER":222.1406,"MEAN_ANOMALY":300.3283,"EPHEMERIS_TYPE":0,"CLASSIFICATION_TYPE":"U","NORAD_CAT_ID":46533,"ELEMENT_SET_NO":999,"REV_AT_EPOCH":601,"BSTAR":0.0013754,"MEAN_MOTION_DOT":0.00291021,"MEAN_MOTION_DDOT":0},{"OBJECT_NAME":"STARLINK-1663","OBJECT_ID":"2020-070D","EPOCH":"2026-02-22T19:37:26.687136","MEAN_MOTION":15.61328037,"ECCENTRICITY":0.0005542,"INCLINATION":53.0456,"RA_OF_ASC_NODE":208.1564,"ARG_OF_PERICENTER":137.3995,"MEAN_ANOMALY":222.7448,"EPHEMERIS_TYPE":0,"CLASSIFICATION_TYPE":"U","NORAD_CAT_ID":46535,"ELEMENT_SET_NO":999,"REV_AT_EPOCH":29775,"BSTAR":0.0016287,"MEAN_MOTION_DOT":0.00143163,"MEAN_MOTION_DDOT":0}]
